{
    "links": {
        "self": "http://www.neowsapp.com/rest/v1/neo/3791347?api_key=iIulBulltgU6a56xZRHN4H3l9WmuAYTsLGpBGhQ2"
    },
    "id": "3791347",
    "neo_reference_id": "3791347",
    "name": "(2017 XW60)",
    "designation": "2017 XW60",
    "nasa_jpl_url": "http://ssd.jpl.nasa.gov/sbdb.cgi?sstr=3791347",
    "absolute_magnitude_h": 27.9,
    "estimated_diameter": {
        "kilometers": {
            "estimated_diameter_min": 0.0069912523,
            "estimated_diameter_max": 0.0156329154
        },
        "meters": {
            "estimated_diameter_min": 6.9912523225,
            "estimated_diameter_max": 15.6329154409
        },
        "miles": {
            "estimated_diameter_min": 0.0043441614,
            "estimated_diameter_max": 0.0097138403
        },
        "feet": {
            "estimated_diameter_min": 22.9371802696,
            "estimated_diameter_max": 51.289094295
        }
    },
    "is_potentially_hazardous_asteroid": false,
    "close_approach_data": [
        {
            "close_approach_date": "2017-12-18",
            "close_approach_date_full": "2017-Dec-18 00:11",
            "epoch_date_close_approach": 1513555860000,
            "relative_velocity": {
                "kilometers_per_second": "8.7736626644",
                "kilometers_per_hour": "31585.1855919098",
                "miles_per_hour": "19625.8060140397"
            },
            "miss_distance": {
                "astronomical": "0.0132609789",
                "lunar": "5.1585207921",
                "kilometers": "1983814.197554943",
                "miles": "1232684.9819984934"
            },
            "orbiting_body": "Earth"
        }
    ],
    "orbital_data": {
        "orbit_id": "6",
        "orbit_determination_date": "2017-12-20 06:22:42",
        "first_observation_date": "2017-12-14",
        "last_observation_date": "2017-12-19",
        "data_arc_in_days": 5,
        "observations_used": 27,
        "orbit_uncertainty": "8",
        "minimum_orbit_intersection": ".0102758",
        "jupiter_tisserand_invariant": "3.093",
        "epoch_osculation": "2458102.5",
        "eccentricity": ".6254985672826724",
        "semi_major_axis": "2.617017735006204",
        "inclination": "3.269324816955229",
        "ascending_node_longitude": "81.0217183384172",
        "orbital_period": "1546.35223198282",
        "perihelion_distance": ".9800768912064792",
        "perihelion_argument": "21.46380991721537",
        "aphelion_distance": "4.253958578805929",
        "perihelion_time": "2458118.137216481524",
        "mean_anomaly": "356.359562965722",
        "mean_motion": ".2328059497404338",
        "equinox": "J2000",
        "orbit_class": {
            "orbit_class_type": "APO",
            "orbit_class_description": "Near-Earth asteroid orbits which cross the Earth’s orbit similar to that of 1862 Apollo",
            "orbit_class_range": "a (semi-major axis) > 1.0 AU; q (perihelion) < 1.017 AU"
        }
    },
    "is_sentry_object": false
}